GPM-CORE                
1 39574U 14009C   25330.44462779  .00016864  00000+0  36049-3 0  9997
2 39574  64.9752 267.2903 0010654 267.6004  92.3917 15.44914476666490
SENTINEL-1A             
1 39634U 14016A   25330.25902619  .00000231  00000+0  58717-4 0  9991
2 39634  98.1807 335.7435 0001262  89.5088 270.6257 14.59203189620424
KAZEOSAT 1              
1 39731U 14024A   25330.48450756  .00000293  00000+0  10238-3 0  9996
2 39731  98.3451  42.7553 0001045  96.4071 263.7238 14.42048363609346
ALOS-2                  
1 39766U 14029A   25330.30825705 -.00000662  00000+0 -81775-4 0  9997
2 39766  97.9242  65.3886 0001240  97.2616 262.8737 14.79476229621588
KAZEOSAT 2              
1 40010U 14033A   25330.52245084  .00000882  00000+0  10891-3 0  9998
2 40010  97.5517 175.6731 0007122 269.0405  90.9994 14.85127675618875
HODOYOSHI-4             
1 40011U 14033B   25330.53094263  .00002142  00000+0  24167-3 0  9993
2 40011  97.5424 160.2137 0022453 256.8076 103.0636 14.87392505618670
DEIMOS-2                
1 40013U 14033D   25330.56119446  .00002613  00000+0  25750-3 0  9991
2 40013  97.6073 206.8946 0001001  63.2269 296.9053 14.92865676607480
HODOYOSHI-3             
1 40015U 14033F   25330.44836999  .00001894  00000+0  22772-3 0  9990
2 40015  97.6199 136.9929 0032064 303.7414  56.0747 14.84721001617538
SPOT 7                  
1 40053U 14034A   25330.50736295  .00000691  00000+0  15110-3 0  9990
2 40053  98.0927  32.9555 0001472 100.4462 259.6904 14.60702445607549
SKYSAT-B                
1 40072U 14037D   25330.40557613  .00002339  00000+0  26640-3 0  9999
2 40072  98.3588 273.2527 0004839 203.1291 156.9706 14.87235311615816
WORLDVIEW-3 (WV-3)      
1 40115U 14048A   25330.47346161  .00001436  00000+0  17278-3 0  9994
2 40115  97.8631  42.9576 0003758 247.1462 112.9356 14.85449813611821
GAOFEN-2                
1 40118U 14049A   25330.52166753  .00001015  00000+0  13936-3 0  9991
2 40118  98.0407  29.6605 0007793 160.1147 200.0370 14.80566037609241
YAOGAN-21               
1 40143U 14053A   25330.52504061  .00009069  00000+0  38364-3 0  9991
2 40143  97.1779  14.5442 0010404  90.4650 269.7779 15.23365767624078
YAOGAN-22               
1 40275U 14063A   25330.43297550  .00000018  00000+0  17083-3 0  9990
2 40275 100.7414 113.6230 0005846 287.5443  72.5029 13.15521576533157
ASNARO                  
1 40298U 14070A   25330.47333668  .00012218  00000+0  57530-3 0  9994
2 40298  97.3662  46.8166 0006746 148.2846 211.8797 15.19653383613228
YAOGAN-24               
1 40310U 14072A   25330.54382969  .00001178  00000+0  17799-3 0  9993
2 40310  98.1214 101.5523 0013799 188.7773 171.3197 14.76125013593828
CBERS 4                 
1 40336U 14079A   25330.48461420  .00000191  00000+0  81140-4 0  9997
2 40336  98.3331  29.0558 0001209 132.4298 227.6991 14.35524555574871
YAOGAN-26               
1 40362U 14088A   25330.54309479  .00018985  00000+0  50074-3 0  9999
2 40362  97.0654 331.8042 0007864  72.4819 287.7286 15.38494701606458
SMAP                    
1 40376U 15003A   25330.48131435  .00000681  00000+0  14103-3 0  9997
2 40376  98.1295 335.4393 0001340  90.5504 269.5852 14.63345261577974
KOMPSAT-3A              
1 40536U 15014A   25330.47288338  .00020264  00000+0  45938-3 0  9990
2 40536  97.6779 303.9339 0002783 164.1747 195.9587 15.43120239590441
SENTINEL-2A             
1 40697U 15028A   25330.48743132  .00000195  00000+0  90959-4 0  9997
2 40697  98.5710  43.2509 0001073  93.3566 266.7740 14.30817597544745
GAOFEN-8                
1 40701U 15030A   25330.50582709  .00020119  00000+0  54312-3 0  9990
2 40701  97.6920 147.8656 0010850 196.3052 163.7844 15.37750966580212
CARBONITE 1 (CBNT-1)    
1 40718U 15032D   25330.51942670  .00002971  00000+0  37450-3 0  9998
2 40718  97.6409 152.2787 0013494 237.2449 122.7465 14.82629362559303
YAOGAN-27               
1 40878U 15040A   25330.50842443 -.00000036  00000+0  15998-4 0  9995
2 40878 100.1001 320.8633 0007882 326.5062  33.5552 13.16059133491005
GAOFEN-9 01             
1 40894U 15047A   25330.53115490  .00001414  00000+0  18172-3 0  9994
2 40894  97.6564  10.1856 0029109  85.1772 275.2765 14.82360941550165
YAOGAN-28               
1 41026U 15064A   25330.55310236  .00009245  00000+0  38436-3 0  9993
2 41026  97.2801 108.8087 0011463 180.7921 179.3301 15.23943252559781
YAOGAN-29               
1 41038U 15069A   25330.48995907  .00000570  00000+0  77098-4 0  9997
2 41038  98.0235 353.6084 0001286  23.3378 336.7894 14.82855608540586
KENT RIDGE 1            
1 41167U 15077B   25330.25335057  .00005704  00000+0  21361-3 0  9993
2 41167  14.9814 333.4494 0008801 258.2848 101.6486 15.21446669550125
GAOFEN-4                
1 41194U 15083A   25330.56665506 -.00000316  00000+0  00000+0 0  9997
2 41194   0.1256  79.9189 0003601 103.9731 191.5679  1.00270648 36490
JASON-3                 
1 41240U 16002A   25330.43952267 -.00000036  00000+0  10350-3 0  9992
2 41240  66.0400 192.0941 0007225 270.0276  89.9915 12.87629001461148
SENTINEL-3A             
1 41335U 16011A   25330.47100193  .00000181  00000+0  92685-4 0  9996
2 41335  98.6226  35.7209 0001058  90.4027 269.7275 14.26737307509151
ZIYUAN 3-2 (ZY 3-2)     
1 41556U 16033A   25330.54011525  .00008317  00000+0  37547-3 0  9997
2 41556  97.4055  44.9746 0012688 312.2142  47.8016 15.21164081527174
CARTOSAT-2C             
1 41599U 16040A   25330.59423171  .00000541  00000+0  28882-4 0  9995
2 41599  97.4787  28.0083 0011290 118.3589 241.8786 15.19277678522953
SKYSAT-C1               
1 41601U 16040C   25330.06908249  .00011649  00000+0  37726-3 0  9992
2 41601  96.9843   8.0257 0003934  56.6879 303.4740 15.32157532526722
LAPAN-A3                
1 41603U 16040E   25330.55587959  .00004671  00000+0  15634-3 0  9990
2 41603  97.1432 328.7034 0011649  31.1952 328.9979 15.31365874523786
BIROS                   
1 41604U 16040F   25330.32757596  .00138935  00000+0  62515-3 0  9993
2 41604  97.0713   1.1799 0001714 195.5493 164.5725 15.83705792526123
GAOFEN-3                
1 41727U 16049A   25330.50052844  .00000095  00000+0  42129-4 0  9997
2 41727  98.4044 336.3340 0001609  81.8077 278.3295 14.42228774489436
SKYSAT-C4               
1 41771U 16058B   25330.50832610  .00016407  00000+0  39165-3 0  9992
2 41771  96.9396 356.4921 0000719  67.6472 292.4852 15.41597375514170
SKYSAT-C5               
1 41772U 16058C   25330.39027360  .00011853  00000+0  34213-3 0  9997
2 41772  97.0782  14.7879 0004505 142.1931 217.9631 15.35811485512656
SKYSAT-C2               
1 41773U 16058D   25330.33994036  .00012907  00000+0  36131-3 0  9997
2 41773  97.0379 355.5669 0005433  74.5144 285.6700 15.36746148513842
SKYSAT-C3               
1 41774U 16058E   25330.05588191  .00022154  00000+0  49412-3 0  9999
2 41774  96.9322   4.5875 0001359  90.6888 269.4517 15.43575518514684
ALSAT 1B                
1 41785U 16059C   25330.49212707  .00000842  00000+0  14134-3 0  9990
2 41785  97.7824 342.9826 0009958 150.4396 209.7377 14.72050384490751
PATHFINDER 1            
1 41787U 16059E   25330.49277954  .00000948  00000+0  17521-3 0  9997
2 41787  97.8142 334.0205 0029700 130.7067 229.6725 14.67279126489985
SCATSAT 1               
1 41790U 16059H   25330.41849103  .00002110  00000+0  28688-3 0  9993
2 41790  98.1482  26.8841 0055376 179.9312 180.1916 14.78850738 71614
GOKTURK 1A              
1 41875U 16073A   25330.56462211  .00000654  00000+0  13741-3 0  9995
2 41875  98.1430 223.1453 0001270  80.8900 279.2446 14.62750400479202
RESOURCESAT-2A          
1 41877U 16074A   25330.50950339  .00000208  00000+0  11514-3 0  9996
2 41877  98.7774  40.4585 0001276 332.5409  27.5701 14.21611000465507
CARTOSAT-2D             
1 41948U 17008A   25330.62832802 -.00000035  00000+0  15210-5 0  9998
2 41948  97.4408  28.3680 0004300 223.3281 136.7616 15.19252753486823
SENTINEL-2B             
1 42063U 17013A   25330.48015257  .00000190  00000+0  89096-4 0  9997
2 42063  98.5643  43.1542 0001123 103.2256 256.9052 14.30825758455654
CARTOSAT-2E             
1 42767U 17036C   25330.51293360  .00006720  00000+0  32193-3 0  9990
2 42767  97.4575  28.3088 0002880 306.6410  53.4560 15.19258004467377
FORMOSAT-5              
1 42920U 17049A   25330.49880359  .00000291  00000+0  84587-4 0  9994
2 42920  98.2468  45.1388 0010731 348.8411  11.2544 14.50990801437284
SENTINEL-5P             
1 42969U 17064A   25330.41401826  .00000113  00000+0  74497-4 0  9996
2 42969  98.7762 269.1450 0000984  83.4759 276.6529 14.19511188420793
SKYSAT-C11              
1 42987U 17068A   25330.37864015  .00022396  00000+0  45264-3 0  9994
2 42987  97.4138 107.4795 0000663 115.8307 244.3011 15.46490234451785
SKYSAT-C10              
1 42988U 17068B   25330.33426367  .00011927  00000+0  39071-3 0  9992
2 42988  97.4254 101.1452 0005201 141.0987 219.0630 15.31796029451280
SKYSAT-C9               
1 42989U 17068C   25330.33748757  .00014263  00000+0  41558-3 0  9992
2 42989  97.4183 100.4716 0010410 141.4439 218.7549 15.35441810451566
SKYSAT-C8               
1 42990U 17068D   25330.44038323  .00012982  00000+0  41719-3 0  9992
2 42990  97.4276 100.3779 0002604  38.9855 321.1574 15.32401925451216
SKYSAT-C7               
1 42991U 17068E   25330.32969453  .00012610  00000+0  41250-3 0  9995
2 42991  97.4281 101.3213 0007849 107.6107 252.5992 15.31811521451269
SKYSAT-C6               
1 42992U 17068F   25330.36498617  .00011654  00000+0  39141-3 0  9992
2 42992  97.4315 101.8081 0004977 128.7912 231.3774 15.30997869451254
CARTOSAT-2F             
1 43111U 18004A   25330.61178468  .00000840  00000+0  43040-4 0  9993
2 43111  97.4334  28.5075 0000528 228.0995 132.0194 15.19262835436576
GAOFEN-1 02             
1 43259U 18031A   25330.52754709  .00001176  00000+0  17662-3 0  9997
2 43259  98.0828  28.3088 0001361 301.2900  58.8176 14.76429406412796
GAOFEN-1 03             
1 43260U 18031B   25330.50553345  .00001187  00000+0  17794-3 0  9998
2 43260  98.0820  28.1658 0002899  11.5082 348.6194 14.76494313412788
